start=new Date('2023-03-31T00:00:00.000Z').valueOf();
sats=[{"ECCENTRICITY":"0.00016950","MEAN_MOTION_DOT":"0.00017941","RCS_SIZE":"LARGE","MEAN_ELEMENT_THEORY":"SGP4","SITE":"AFETR","INCLINATION":"53.2177","PERIAPSIS":"538.574","MEAN_ANOMALY":"254.8197","BSTAR":"0.00114250000000","ELEMENT_SET_NO":"999","ARG_OF_PERICENTER":"105.2982","REV_AT_EPOCH":"3330","TLE_LINE1":"1 53597U 22104K   23089.53297751  .00017941  00000-0  11425-2 0  9996","CENTER_NAME":"EARTH","OBJECT_ID":"2022-104K","OBJECT_NAME":"STARLINK-4682","TIME_SYSTEM":"UTC","DECAY_DATE":null,"EPOCH":"2023-03-30T12:47:29.256864","CLASSIFICATION_TYPE":"U","PERIOD":"95.438","FILE":"3875726","EPHEMERIS_TYPE":"0","TLE_LINE2":"2 53597  53.2177  30.6190 0001695 105.2982 254.8197 15.08839467 33309","REF_FRAME":"TEME","COUNTRY_CODE":"US","MEAN_MOTION_DDOT":"0.0000000000000","GP_ID":"229187242","RA_OF_ASC_NODE":"30.6190","MEAN_MOTION":"15.08839467","OBJECT_TYPE":"PAYLOAD","LAUNCH_DATE":"2022-08-28","SEMIMAJOR_AXIS":"6917.882","APOAPSIS":"540.920","NORAD_CAT_ID":"53597"},{"OBJECT_ID":"2022-104L","TIME_SYSTEM":"UTC","OBJECT_NAME":"STARLINK-4676","CENTER_NAME":"EARTH","TLE_LINE2":"2 53598  53.2168  32.6334 0001375  68.1913 291.9225 15.08846111 33238","EPHEMERIS_TYPE":"0","REF_FRAME":"TEME","COUNTRY_CODE":"US","EPOCH":"2023-03-30T01:23:52.112256","DECAY_DATE":null,"FILE":"3875726","PERIOD":"95.437","CLASSIFICATION_TYPE":"U","RA_OF_ASC_NODE":"32.6334","MEAN_MOTION":"15.08846111","OBJECT_TYPE":"PAYLOAD","GP_ID":"229185719","MEAN_MOTION_DDOT":"0.0000000000000","LAUNCH_DATE":"2022-08-28","APOAPSIS":"540.678","NORAD_CAT_ID":"53598","SEMIMAJOR_AXIS":"6917.862","MEAN_MOTION_DOT":"0.00016028","RCS_SIZE":"LARGE","ECCENTRICITY":"0.00013750","SITE":"AFETR","INCLINATION":"53.2168","MEAN_ELEMENT_THEORY":"SGP4","MEAN_ANOMALY":"291.9225","PERIAPSIS":"538.776","REV_AT_EPOCH":"3323","ARG_OF_PERICENTER":"68.1913","ELEMENT_SET_NO":"999","TLE_LINE1":"1 53598U 22104L   23089.05824204  .00016028  00000-0  10227-2 0  9997","BSTAR":"0.00102270000000"},{"MEAN_MOTION_DOT":"0.00017745","RCS_SIZE":"LARGE","ECCENTRICITY":"0.00008770","SITE":"AFETR","INCLINATION":"53.2182","MEAN_ELEMENT_THEORY":"SGP4","MEAN_ANOMALY":"282.1149","PERIAPSIS":"539.106","ELEMENT_SET_NO":"999","ARG_OF_PERICENTER":"77.9941","REV_AT_EPOCH":"3298","TLE_LINE1":"1 53600U 22104N   23089.24958565  .00017745  00000-0  11299-2 0  9997","BSTAR":"0.00112990000000","OBJECT_ID":"2022-104N","OBJECT_NAME":"STARLINK-4677","TIME_SYSTEM":"UTC","CENTER_NAME":"EARTH","EPHEMERIS_TYPE":"0","TLE_LINE2":"2 53600  53.2182  31.6959 0000877  77.9941 282.1149 15.08850741 32987","COUNTRY_CODE":"US","REF_FRAME":"TEME","DECAY_DATE":null,"EPOCH":"2023-03-30T05:59:24.200160","CLASSIFICATION_TYPE":"U","PERIOD":"95.437","FILE":"3875049","RA_OF_ASC_NODE":"31.6959","MEAN_MOTION":"15.08850741","OBJECT_TYPE":"PAYLOAD","MEAN_MOTION_DDOT":"0.0000000000000","GP_ID":"229148361","LAUNCH_DATE":"2022-08-28","SEMIMAJOR_AXIS":"6917.848","APOAPSIS":"540.319","NORAD_CAT_ID":"53600"},{"CENTER_NAME":"EARTH","OBJECT_ID":"2022-104P","OBJECT_NAME":"STARLINK-4675","TIME_SYSTEM":"UTC","DECAY_DATE":null,"EPOCH":"2023-03-30T12:36:52.033536","CLASSIFICATION_TYPE":"U","PERIOD":"95.437","FILE":"3875726","EPHEMERIS_TYPE":"0","TLE_LINE2":"2 53601  53.2165  30.5737 0000846  93.5364 266.5725 15.08843922 33306","REF_FRAME":"TEME","COUNTRY_CODE":"US","MEAN_MOTION_DDOT":"0.0000000000000","GP_ID":"229186491","RA_OF_ASC_NODE":"30.5737","MEAN_MOTION":"15.08843922","OBJECT_TYPE":"PAYLOAD","LAUNCH_DATE":"2022-08-28","SEMIMAJOR_AXIS":"6917.868","APOAPSIS":"540.319","NORAD_CAT_ID":"53601","ECCENTRICITY":"0.00008460","MEAN_MOTION_DOT":"0.00009555","RCS_SIZE":"LARGE","MEAN_ELEMENT_THEORY":"SGP4","SITE":"AFETR","INCLINATION":"53.2165","PERIAPSIS":"539.148","MEAN_ANOMALY":"266.5725","BSTAR":"0.00061754000000","ELEMENT_SET_NO":"999","ARG_OF_PERICENTER":"93.5364","REV_AT_EPOCH":"3330","TLE_LINE1":"1 53601U 22104P   23089.52560224  .00009555  00000-0  61754-3 0  9992"},{"GP_ID":"229186743","MEAN_MOTION_DDOT":"0.0000000000000","RA_OF_ASC_NODE":"27.8735","MEAN_MOTION":"15.08840495","OBJECT_TYPE":"PAYLOAD","LAUNCH_DATE":"2022-08-28","APOAPSIS":"540.622","NORAD_CAT_ID":"53602","SEMIMAJOR_AXIS":"6917.879","CENTER_NAME":"EARTH","OBJECT_ID":"2022-104Q","TIME_SYSTEM":"UTC","OBJECT_NAME":"STARLINK-4648","EPOCH":"2023-03-30T02:16:19.093152","DECAY_DATE":null,"FILE":"3875726","CLASSIFICATION_TYPE":"U","PERIOD":"95.438","TLE_LINE2":"2 53602  53.2182  27.8735 0001269  97.9881 262.1255 15.08840495 33307","EPHEMERIS_TYPE":"0","REF_FRAME":"TEME","COUNTRY_CODE":"US","PERIAPSIS":"538.866","MEAN_ANOMALY":"262.1255","BSTAR":"0.00071161000000","ARG_OF_PERICENTER":"97.9881","REV_AT_EPOCH":"3330","ELEMENT_SET_NO":"999","TLE_LINE1":"1 53602U 22104Q   23089.09466543  .00011056  00000-0  71161-3 0  9996","ECCENTRICITY":"0.00012690","MEAN_MOTION_DOT":"0.00011056","RCS_SIZE":"LARGE","MEAN_ELEMENT_THEORY":"SGP4","SITE":"AFETR","INCLINATION":"53.2182"},{"DECAY_DATE":null,"EPOCH":"2023-03-30T02:32:13.761312","CLASSIFICATION_TYPE":"U","PERIOD":"95.437","FILE":"3875726","EPHEMERIS_TYPE":"0","TLE_LINE2":"2 53603  53.2178  27.9457 0001266  94.9128 265.2009 15.08844391 33303","COUNTRY_CODE":"US","REF_FRAME":"TEME","CENTER_NAME":"EARTH","OBJECT_ID":"2022-104R","OBJECT_NAME":"STARLINK-4692","TIME_SYSTEM":"UTC","LAUNCH_DATE":"2022-08-28","SEMIMAJOR_AXIS":"6917.867","APOAPSIS":"540.608","NORAD_CAT_ID":"53603","MEAN_MOTION_DDOT":"0.0000000000000","GP_ID":"229186219","RA_OF_ASC_NODE":"27.9457","MEAN_MOTION":"15.08844391","OBJECT_TYPE":"PAYLOAD","MEAN_ELEMENT_THEORY":"SGP4","SITE":"AFETR","INCLINATION":"53.2178","ECCENTRICITY":"0.00012660","MEAN_MOTION_DOT":"0.00000562","RCS_SIZE":"LARGE","BSTAR":"0.00005341200000","ELEMENT_SET_NO":"999","REV_AT_EPOCH":"3330","ARG_OF_PERICENTER":"94.9128","TLE_LINE1":"1 53603U 22104R   23089.10571483  .00000562  00000-0  53412-4 0  9999","PERIAPSIS":"538.856","MEAN_ANOMALY":"265.2009"},{"SEMIMAJOR_AXIS":"6917.902","NORAD_CAT_ID":"53604","APOAPSIS":"540.521","LAUNCH_DATE":"2022-08-28","OBJECT_TYPE":"PAYLOAD","MEAN_MOTION":"15.08832828","RA_OF_ASC_NODE":"25.6267","MEAN_MOTION_DDOT":"0.0000000000000","GP_ID":"229186241","COUNTRY_CODE":"US","REF_FRAME":"TEME","EPHEMERIS_TYPE":"0","TLE_LINE2":"2 53604  53.2174  25.6267 0001089 107.7565 252.3546 15.08832828 33377","PERIOD":"95.438","CLASSIFICATION_TYPE":"U","FILE":"3875726","DECAY_DATE":null,"EPOCH":"2023-03-30T12:45:29.848608","OBJECT_NAME":"STARLINK-4690","TIME_SYSTEM":"UTC","OBJECT_ID":"2022-104S","CENTER_NAME":"EARTH","TLE_LINE1":"1 53604U 22104S   23089.53159547  .00025274  00000-0  16007-2 0  9994","ELEMENT_SET_NO":"999","REV_AT_EPOCH":"3337","ARG_OF_PERICENTER":"107.7565","BSTAR":"0.00160070000000","MEAN_ANOMALY":"252.3546","PERIAPSIS":"539.014","INCLINATION":"53.2174","SITE":"AFETR","MEAN_ELEMENT_THEORY":"SGP4","RCS_SIZE":"LARGE","MEAN_MOTION_DOT":"0.00025274","ECCENTRICITY":"0.00010890"},{"ELEMENT_SET_NO":"999","REV_AT_EPOCH":"3326","ARG_OF_PERICENTER":"99.3610","TLE_LINE1":"1 53605U 22104T   23089.25327104  .00021734  00000-0  13788-2 0  9990","BSTAR":"0.00137880000000","MEAN_ANOMALY":"260.7507","PERIAPSIS":"538.933","SITE":"AFETR","INCLINATION":"53.2175","MEAN_ELEMENT_THEORY":"SGP4","MEAN_MOTION_DOT":"0.00021734","RCS_SIZE":"LARGE","ECCENTRICITY":"0.00011020","LAUNCH_DATE":"2022-08-28","SEMIMAJOR_AXIS":"6917.830","NORAD_CAT_ID":"53605","APOAPSIS":"540.458","RA_OF_ASC_NODE":"31.7164","MEAN_MOTION":"15.08856410","OBJECT_TYPE":"PAYLOAD","MEAN_MOTION_DDOT":"0.0000000000000","GP_ID":"229185992","EPHEMERIS_TYPE":"0","TLE_LINE2":"2 53605  53.2175  31.7164 0001102  99.3610 260.7507 15.08856410 33267","COUNTRY_CODE":"US","REF_FRAME":"TEME","DECAY_DATE":null,"EPOCH":"2023-03-30T06:04:42.617856","PERIOD":"95.437","CLASSIFICATION_TYPE":"U","FILE":"3875726","OBJECT_ID":"2022-104T","OBJECT_NAME":"STARLINK-4693","TIME_SYSTEM":"UTC","CENTER_NAME":"EARTH"},{"MEAN_ANOMALY":"252.3839","PERIAPSIS":"538.892","TLE_LINE1":"1 53606U 22104U   23089.21742711  .00005277  00000-0  34924-3 0  9992","ARG_OF_PERICENTER":"107.7280","REV_AT_EPOCH":"3327","ELEMENT_SET_NO":"999","BSTAR":"0.00034924000000","RCS_SIZE":"LARGE","MEAN_MOTION_DOT":"0.00005277","ECCENTRICITY":"0.00011600","INCLINATION":"53.2175","SITE":"AFETR","MEAN_ELEMENT_THEORY":"SGP4","OBJECT_TYPE":"PAYLOAD","MEAN_MOTION":"15.08856559","RA_OF_ASC_NODE":"22.2167","GP_ID":"229187243","MEAN_MOTION_DDOT":"0.0000000000000","NORAD_CAT_ID":"53606","APOAPSIS":"540.497","SEMIMAJOR_AXIS":"6917.830","LAUNCH_DATE":"2022-08-28","TIME_SYSTEM":"UTC","OBJECT_NAME":"STARLINK-4590","OBJECT_ID":"2022-104U","CENTER_NAME":"EARTH","COUNTRY_CODE":"US","REF_FRAME":"TEME","TLE_LINE2":"2 53606  53.2175  22.2167 0001160 107.7280 252.3839 15.08856559 33277","EPHEMERIS_TYPE":"0","FILE":"3875726","PERIOD":"95.437","CLASSIFICATION_TYPE":"U","EPOCH":"2023-03-30T05:13:05.702304","DECAY_DATE":null},{"SEMIMAJOR_AXIS":"6917.875","NORAD_CAT_ID":"53607","APOAPSIS":"540.650","LAUNCH_DATE":"2022-08-28","MEAN_MOTION_DDOT":"0.0000000000000","GP_ID":"229185720","OBJECT_TYPE":"PAYLOAD","MEAN_MOTION":"15.08841808","RA_OF_ASC_NODE":"25.6921","CLASSIFICATION_TYPE":"U","PERIOD":"95.437","FILE":"3875726","DECAY_DATE":null,"EPOCH":"2023-03-30T13:01:24.983328","COUNTRY_CODE":"US","REF_FRAME":"TEME","EPHEMERIS_TYPE":"0","TLE_LINE2":"2 53607  53.2170  25.6921 0001316  72.9989 287.1147 15.08841808 33370","CENTER_NAME":"EARTH","OBJECT_NAME":"STARLINK-4591","TIME_SYSTEM":"UTC","OBJECT_ID":"2022-104V","BSTAR":"0.00010157000000","TLE_LINE1":"1 53607U 22104V   23089.54265027  .00001329  00000-0  10157-3 0  9995","ELEMENT_SET_NO":"999","REV_AT_EPOCH":"3337","ARG_OF_PERICENTER":"72.9989","PERIAPSIS":"538.829","MEAN_ANOMALY":"287.1147","MEAN_ELEMENT_THEORY":"SGP4","INCLINATION":"53.2170","SITE":"AFETR","ECCENTRICITY":"0.00013160","RCS_SIZE":"LARGE","MEAN_MOTION_DOT":"0.00001329"}];
